STARLINK-5126           
1 54012U 22125BA  26195.66123828  .00001233  00000+0  55040-4 0  9999
2 54012  53.1626 350.2042 0001670  75.2187 284.8998 15.29363309208826
STARLINK-5098           
1 54013U 22125BB  26195.91670139  .00078261  00000+0  29289-2 0  9999
2 54013  53.1610 351.6639 0000940  69.9921 338.6026 15.26634640  5799
STARLINK-5055           
1 54015U 22125BD  26195.91670139  .00081611  00000+0  27867-2 0  9994
2 54015  53.2168 351.2970 0002069  50.3888 317.0418 15.29621717  5794
STARLINK-5195           
1 54051U 22136A   26195.05492697 -.00000278  00000+0  48968-6 0  9992
2 54051  53.1881 137.2927 0001487  91.2525 268.8637 15.08018905205912
STARLINK-5189           
1 54052U 22136B   26195.90985901  .00000701  00000+0  62108-4 0  9992
2 54052  53.1604  92.5635 0001400  92.1983 267.9169 15.08839168206618
STARLINK-5176           
1 54053U 22136C   26195.96044295  .00001663  00000+0  65316-4 0  9993
2 54053  53.1610 129.2973 0001201  57.5083 302.6035 15.31714494206107
STARLINK-5163           
1 54054U 22136D   26195.91670139 -.00016087  00000+0 -50742-3 0  9995
2 54054  53.1628 130.9088 0001359  92.2979  51.0732 15.31718735  5790
STARLINK-5158           
1 54055U 22136E   26195.91670139  .00016683  00000+0  82516-3 0  9990
2 54055  53.1606 132.6500 0000800 128.2502 169.2005 15.17952205  5743
STARLINK-5226           
1 54056U 22136F   26195.56391198  .00000032  00000+0  20138-4 0  9991
2 54056  53.1591 133.8875 0001592  83.4360 276.6812 15.08836662206007
STARLINK-5167           
1 54058U 22136H   26195.91670139  .00020292  00000+0  10462-2 0  9994
2 54058  53.1618 132.5430 0001380  75.3706 274.6679 15.16360675  5798
STARLINK-5173           
1 54059U 22136J   26195.91670139  .00016964  00000+0  80179-3 0  9999
2 54059  53.1612 132.4259 0002009  73.5353 338.3135 15.19521946  5640
STARLINK-5169           
1 54060U 22136K   26195.89788253 -.00000844  00000+0 -34943-4 0  9996
2 54060  53.1596 102.4590 0001321  78.4288 281.6852 15.08829953206472
STARLINK-5209           
1 54061U 22136L   26195.91670139  .00015062  00000+0  76429-3 0  9993
2 54061  53.1605  97.0858 0001002  99.0314 134.4429 15.17132118  5499
STARLINK-5170           
1 54062U 22136M   26195.91670139  .00013818  00000+0  70603-3 0  9999
2 54062  53.1613 132.5034 0002184  58.8791 311.8779 15.16958272  5792
STARLINK-5172           
1 54064U 22136P   26195.90640337  .00000602  00000+0  33179-4 0  9992
2 54064  53.1607  84.7383 0001275  98.5561 261.5584 15.29359618206722
STARLINK-5187           
1 54065U 22136Q   26195.91670139  .00019822  00000+0  10583-2 0  9993
2 54065  53.1614 132.4620 0002411  49.6183 342.0638 15.15140138  5795
STARLINK-5151           
1 54066U 22136R   26195.55580270  .00000356  00000+0  41218-4 0  9993
2 54066  53.1875 134.7338 0001516  81.5705 278.5459 15.08018341205996
STARLINK-5174           
1 54067U 22136S   26195.91670139  .00016356  00000+0  83561-3 0  9991
2 54067  53.1613 132.2923 0002452  57.9994  60.4318 15.16830542  5700
STARLINK-5222           
1 54068U 22136T   26195.51978926 -.00002630  00000+0 -14723-3 0  9999
2 54068  53.1587 134.3121 0001843  97.1990 262.9211 15.08835213205994
STARLINK-5181           
1 54070U 22136V   26195.91670139  .00014281  00000+0  80080-3 0  9993
2 54070  53.1609 132.3430 0001741  95.3383 357.4332 15.13625524  5806
STARLINK-5168           
1 54071U 22136W   26195.91670139  .00021768  00000+0  11561-2 0  9999
2 54071  53.1610 132.2567 0002182 100.1856  35.4010 15.15267541  5808
STARLINK-5146           
1 54073U 22136Y   26195.10622056 -.00000579  00000+0 -18291-4 0  9995
2 54073  53.1607 131.0199 0001487  87.7338 272.3824 15.08833540206006
STARLINK-5192           
1 54074U 22136Z   26195.89879529 -.00000278  00000+0  62395-6 0  9992
2 54074  53.1601 132.4088 0001243 102.5354 257.5776 15.08836526206050
STARLINK-5212           
1 54075U 22136AA  26195.94501819  .00002717  00000+0  99240-4 0  9999
2 54075  53.1613 123.5114 0001444  75.7771 284.3390 15.31712220206186
STARLINK-5201           
1 54076U 22136AB  26195.55758817 -.00000580  00000+0 -18326-4 0  9993
2 54076  53.1598 134.5302 0001242  92.9332 267.1801 15.08835049205993
STARLINK-5171           
1 54077U 22136AC  26195.91137546 -.00000054  00000+0  14717-4 0  9999
2 54077  53.1601 108.3741 0001457  95.8128 264.3030 15.08831285206394
STARLINK-5175           
1 54079U 22136AE  26195.95499067 -.00000911  00000+0 -39163-4 0  9999
2 54079  53.1599 122.7681 0001359  75.8922 284.2220 15.08831129206193
STARLINK-5210           
1 54082U 22136AH  26195.22266380 -.00000092  00000+0  12296-4 0  9990
2 54082  53.1600 126.0186 0001466  83.4705 276.6453 15.08831096206084
STARLINK-5178           
1 54083U 22136AJ  26195.54280958  .00000545  00000+0  52310-4 0  9996
2 54083  53.1589 124.4614 0001462  88.7222 271.3937 15.08838786206135
STARLINK-5183           
1 54084U 22136AK  26195.21897918 -.00000147  00000+0  88853-5 0  9992
2 54084  53.1597 125.9965 0001362  76.4763 283.6381 15.08833501206086
