OBJECT_NAME,OBJECT_ID,EPOCH,MEAN_MOTION,ECCENTRICITY,INCLINATION,RA_OF_ASC_NODE,ARG_OF_PERICENTER,MEAN_ANOMALY,EPHEMERIS_TYPE,CLASSIFICATION_TYPE,NORAD_CAT_ID,ELEMENT_SET_NO,REV_AT_EPOCH,BSTAR,MEAN_MOTION_DOT,MEAN_MOTION_DDOT
STARLINK-5126,2022-125BA,2026-07-14T15:52:10.987392,15.29363309,.00016703,53.1626,350.2042,75.2187,284.8998,0,U,54012,999,20882,.55040407E-4,.1233E-4,0
STARLINK-5098,2022-125BB,2026-07-14T22:00:03.000096,15.26634640,.00009408,53.1610,351.6639,69.9921,338.6026,0,U,54013,999,579,.29289209E-2,.78261E-3,0
STARLINK-5055,2022-125BD,2026-07-14T22:00:03.000096,15.29621717,.00020699,53.2168,351.2970,50.3888,317.0418,0,U,54015,999,579,.27867447E-2,.81611E-3,0
STARLINK-5195,2022-136A,2026-07-14T01:19:05.690208,15.08018905,.00014872,53.1881,137.2927,91.2525,268.8637,0,U,54051,999,20591,.489682E-6,-.278E-5,0
STARLINK-5189,2022-136B,2026-07-14T21:50:11.818464,15.08839168,.00014006,53.1604,92.5635,92.1983,267.9169,0,U,54052,999,20661,.62108085E-4,.701E-5,0
STARLINK-5176,2022-136C,2026-07-14T23:03:02.270880,15.31714494,.00012019,53.1610,129.2973,57.5083,302.6035,0,U,54053,999,20610,.65316445E-4,.1663E-4,0
STARLINK-5163,2022-136D,2026-07-14T22:00:03.000096,15.31718735,.00013591,53.1628,130.9088,92.2979,51.0732,0,U,54054,999,579,-.50742087E-3,-.16087E-3,0
STARLINK-5158,2022-136E,2026-07-14T22:00:03.000096,15.17952205,.00008005,53.1606,132.6500,128.2502,169.2005,0,U,54055,999,574,.8251592E-3,.16683E-3,0
STARLINK-5226,2022-136F,2026-07-14T13:32:01.995072,15.08836662,.0001592,53.1591,133.8875,83.4360,276.6812,0,U,54056,999,20600,.20138E-4,.32E-6,0
STARLINK-5167,2022-136H,2026-07-14T22:00:03.000096,15.16360675,.00013804,53.1618,132.5430,75.3706,274.6679,0,U,54058,999,579,.10462335E-2,.20292E-3,0
STARLINK-5173,2022-136J,2026-07-14T22:00:03.000096,15.19521946,.00020099,53.1612,132.4259,73.5353,338.3135,0,U,54059,999,564,.80179015E-3,.16964E-3,0
STARLINK-5169,2022-136K,2026-07-14T21:32:57.050592,15.08829953,.00013218,53.1596,102.4590,78.4288,281.6852,0,U,54060,999,20647,-.34942696E-4,-.844E-5,0
STARLINK-5209,2022-136L,2026-07-14T22:00:03.000096,15.17132118,.00010023,53.1605,97.0858,99.0314,134.4429,0,U,54061,999,549,.76428842E-3,.15062E-3,0
STARLINK-5170,2022-136M,2026-07-14T22:00:03.000096,15.16958272,.00021843,53.1613,132.5034,58.8791,311.8779,0,U,54062,999,579,.70602567E-3,.13818E-3,0
STARLINK-5172,2022-136P,2026-07-14T21:45:13.251168,15.29359618,.00012751,53.1607,84.7383,98.5561,261.5584,0,U,54064,999,20672,.33179211E-4,.602E-5,0
STARLINK-5187,2022-136Q,2026-07-14T22:00:03.000096,15.15140138,.00024111,53.1614,132.4620,49.6183,342.0638,0,U,54065,999,579,.10583093E-2,.19822E-3,0
STARLINK-5151,2022-136R,2026-07-14T13:20:21.353280,15.08018341,.0001516,53.1875,134.7338,81.5705,278.5459,0,U,54066,999,20599,.41218E-4,.356E-5,0
STARLINK-5174,2022-136S,2026-07-14T22:00:03.000096,15.16830542,.00024528,53.1613,132.2923,57.9994,60.4318,0,U,54067,999,570,.835605E-3,.16356E-3,0
STARLINK-5222,2022-136T,2026-07-14T12:28:29.792064,15.08835213,.00018439,53.1587,134.3121,97.1990,262.9211,0,U,54068,999,20599,-.14722656E-3,-.263E-4,0
STARLINK-5181,2022-136V,2026-07-14T22:00:03.000096,15.13625524,.00017411,53.1609,132.3430,95.3383,357.4332,0,U,54070,999,580,.80079982E-3,.14281E-3,0
STARLINK-5168,2022-136W,2026-07-14T22:00:03.000096,15.15267541,.00021826,53.1610,132.2567,100.1856,35.4010,0,U,54071,999,580,.11561315E-2,.21768E-3,0
STARLINK-5146,2022-136Y,2026-07-14T02:32:57.456384,15.08833540,.00014875,53.1607,131.0199,87.7338,272.3824,0,U,54073,999,20600,-.18291477E-4,-.579E-5,0
STARLINK-5192,2022-136Z,2026-07-14T21:34:15.913056,15.08836526,.00012431,53.1601,132.4088,102.5354,257.5776,0,U,54074,999,20605,.623948E-6,-.278E-5,0
STARLINK-5212,2022-136AA,2026-07-14T22:40:49.571616,15.31712220,.00014449,53.1613,123.5114,75.7771,284.3390,0,U,54075,999,20618,.99240074E-4,.2717E-4,0
STARLINK-5201,2022-136AB,2026-07-14T13:22:55.617888,15.08835049,.0001242,53.1598,134.5302,92.9332,267.1801,0,U,54076,999,20599,-.18326E-4,-.58E-5,0
STARLINK-5171,2022-136AC,2026-07-14T21:52:22.839744,15.08831285,.00014572,53.1601,108.3741,95.8128,264.3030,0,U,54077,999,20639,.14717353E-4,-.54E-6,0
STARLINK-5175,2022-136AE,2026-07-14T22:55:11.193888,15.08831129,.00013593,53.1599,122.7681,75.8922,284.2220,0,U,54079,999,20619,-.39163198E-4,-.911E-5,0
STARLINK-5210,2022-136AH,2026-07-14T05:20:38.152320,15.08831096,.0001466,53.1600,126.0186,83.4705,276.6453,0,U,54082,999,20608,.12296156E-4,-.92E-6,0
STARLINK-5178,2022-136AJ,2026-07-14T13:01:38.747712,15.08838786,.0001462,53.1589,124.4614,88.7222,271.3937,0,U,54083,999,20613,.5231E-4,.545E-5,0
STARLINK-5183,2022-136AK,2026-07-14T05:15:19.801152,15.08833501,.00013626,53.1597,125.9965,76.4763,283.6381,0,U,54084,999,20608,.88853E-5,-.147E-5,0
